ORBCOMM FM33            
1 25983U 99065D   26017.49653042  .00000847  00000+0  30741-3 0  9991
2 25983  45.0290  59.6018 0006209  55.5185 304.6251 14.40638799366966
ORBCOMM FM36            
1 25984U 99065E   26017.73664233  .00000785  00000+0  29886-3 0  9992
2 25984  45.0380 153.6316 0002795 272.9744  87.0785 14.38811035365310
ORBCOMM FM35            
1 25985U 99065F   26017.80556067  .00000747  00000+0  29305-3 0  9990
2 25985  45.0382 160.0957 0002585  42.3078 317.7970 14.37714056365663
ORBCOMM FM34            
1 25986U 99065G   26017.56510922  .00000632  00000+0  25544-3 0  9998
2 25986  45.0379 161.7166 0002802 329.5571  30.5114 14.37648649365743
ORBCOMM FM38            
1 33060U 08031A   26017.97704286  .00001647  00000+0  22988-3 0  9992
2 33060  48.4417  10.8292 0005154 253.3158 106.7192 14.82447849946608
ORBCOMM FM41            
1 33061U 08031B   26017.97986564  .00001523  00000+0  21688-3 0  9993
2 33061  48.4452  19.3615 0004283 239.5582 143.6930 14.81992838946084
ORBCOMM FM29            
1 33062U 08031C   26017.77130336  .00001396  00000+0  20037-3 0  9995
2 33062  48.4402  27.8685 0005942 236.1030 294.0376 14.82151108945964
ORBCOMM FM39            
1 33063U 08031D   26017.51642312  .00001256  00000+0  18965-3 0  9992
2 33063  48.4410  55.8052 0006625 204.6009 155.4591 14.80568322945549
